SKY MUSTER 2 (NBN1B)    
1 41794U 16060B   24198.73795573 -.00000226  00000+0  00000+0 0  9997
2 41794   0.0252  52.5869 0001875  59.3035 233.6242  1.00272223 28491
HIMAWARI-9              
1 41836U 16064A   24199.59564175 -.00000258  00000+0  00000+0 0  9990
2 41836   0.0485 222.5279 0001236 244.9904 183.5551  1.00270217 28192
SHIJIAN-17 (SJ-17)      
1 41838U 16065A   24199.69777182 -.00000017  00000+0  00000+0 0  9991
2 41838   3.9627  81.0607 0002265 307.6061 327.8511  1.00269320 28216
GOES 16                 
1 41866U 16071A   24199.55279622 -.00000231  00000+0  00000+0 0  9998
2 41866   0.0865 254.5458 0000536 210.5672 314.5494  1.00271514 28085
TIANLIAN 1-04           
1 41869U 16072A   24199.38839334  .00000049  00000+0  00000+0 0  9991
2 41869   0.1101 263.3874 0035730 249.7974  99.1661  1.00274716 28297
WGS F8 (USA 272)        
1 41879U 16075A   24198.72688069 -.00000184  00000+0  00000+0 0  9990
2 41879   0.0080   9.9010 0000629 111.2156 225.3902  1.00273385 27799
FENGYUN 4A              
1 41882U 16077A   24199.58497977 -.00000181  00000+0  00000+0 0  9994
2 41882   0.5319  86.0219 0008420 345.8619 161.1850  1.00266893 27915
ECHOSTAR 19             
1 41893U 16079A   24198.61825992 -.00000120  00000+0  00000+0 0  9996
2 41893   0.0184  51.9134 0001673  65.9585 302.5422  1.00271757 27689
JCSAT-110A (JCSAT-15)   
1 41903U 16082A   24197.80034465 -.00000333  00000+0  00000+0 0  9995
2 41903   0.0193  46.7127 0000769  56.0178 229.5806  1.00272758 27720
STAR ONE D1             
1 41904U 16082B   24199.55105576 -.00000193  00000+0  00000+0 0  9996
2 41904   0.0044 355.6741 0001848 108.2550 306.2890  1.00269594 27756
TJS-2                   
1 41911U 17001A   24199.58097674  .00000011  00000+0  00000+0 0  9996
2 41911   0.1338 265.7191 0001821 189.7428 116.0558  1.00273926 27718
SBIRS GEO-4 (USA 273)   
1 41937U 17004A   24199.63266306 -.00000127  00000+0  00000+0 0  9992
2 41937   1.4146   1.4023 0002068 113.1560 312.3337  1.00271708 27596
HISPASAT 36W-1          
1 41942U 17006A   24197.77184424 -.00000226  00000+0  00000+0 0  9993
2 41942   0.0187 280.9311 0001043 197.6198  57.4185  1.00272427 27498
TELKOM 3S               
1 41944U 17007A   24199.52869249 -.00000345  00000+0  00000+0 0  9998
2 41944   0.0024 112.4584 0002595   2.7889 128.9146  1.00270364 27193
INTELSAT 32E (IS-32E)   
1 41945U 17007B   24199.48760293 -.00000251  00000+0  00000+0 0  9999
2 41945   0.0156  60.3709 0000423 347.5355  20.2388  1.00269783 27203
ECHOSTAR 23             
1 42070U 17014A   24199.36658311 -.00000039  00000+0  00000+0 0  9995
2 42070   0.0286  56.7091 0002125  59.8164 201.2259  1.00271364 26904
WGS F9 (USA 275)        
1 42075U 17016A   24198.99296500 -.00000078  00000+0  00000+0 0  9991
2 42075   0.0100  36.7811 0000339 107.7448 136.2352  1.00272249 26875
SES-10                  
1 42432U 17017A   24198.76728237 -.00000254  00000+0  00000+0 0  9997
2 42432   0.0167  50.6613 0002661  55.6244  38.1163  1.00270928 26721
CHINASAT 16 (SJ-13)     
1 42662U 17018A   24198.47034447 -.00000334  00000+0  00000+0 0  9993
2 42662   0.0489  91.2423 0003673 129.8750 353.5139  1.00270142 26717
KOREASAT 7              
1 42691U 17023A   24199.59072326 -.00000345  00000+0  00000+0 0  9995
2 42691   0.0277 344.3265 0000664 251.7119  28.4133  1.00272065 26360
SGDC                    
1 42692U 17023B   24199.38662322 -.00000232  00000+0  00000+0 0  9999
2 42692   0.0161 327.4451 0002454 151.6827 240.8976  1.00271856 26389
GSAT-9                  
1 42695U 17024A   24198.37077517 -.00000267  00000+0  00000+0 0  9995
2 42695   0.0606 101.8778 0002282   8.6773  54.8859  1.00268186 26286
INMARSAT 5-F4           
1 42698U 17025A   24198.83578045  .00000093  00000+0  00000+0 0  9998
2 42698   0.0270  51.4590 0000506  79.5489 161.5257  1.00271338 26254
SES-15                  
1 42709U 17026A   24198.54029837  .00000078  00000+0  00000+0 0  9993
2 42709   0.0189  37.6452 0000505  60.6169 261.9623  1.00268474   413
QZS-2 (MICHIBIKI-2)     
1 42738U 17028A   24199.45762581 -.00000092  00000+0  00000+0 0  9995
2 42738  40.5249 253.3238 0756576 269.5624  79.3724  1.00276421   607
VIASAT-2                
1 42740U 17029A   24199.55384049 -.00000248  00000+0  00000+0 0  9992
2 42740   0.0156  76.5069 0000315  26.4546 322.3535  1.00272668 26171
EUTELSAT 172B           
1 42741U 17029B   24199.17264986  .00000012  00000+0  00000+0 0  9996
2 42741   0.0056 165.0886 0000449 249.7016 114.8518  1.00271674 26713
GSAT-19                 
1 42747U 17031A   24198.64715142  .00000143  00000+0  00000+0 0  9996
2 42747   0.0273  58.2351 0006289  26.4012 131.1879  1.00271520 26110
ECHOSTAR 21             
1 42749U 17032A   24198.56762348  .00000087  00000+0  00000+0 0  9997
2 42749   2.4823 320.8098 0002442 154.4786  34.2168  1.00274350 26086
BULGARIASAT-1           
1 42801U 17038A   24199.28190953  .00000029  00000+0  00000+0 0  9995
2 42801   0.0196  50.7851 0002513  66.8293 281.3434  1.00271599 25819
HELLAS-SAT 3            
1 42814U 17040A   24199.43233979  .00000170  00000+0  00000+0 0  9992
2 42814   0.0637  33.1139 0004013  39.8778  57.3740  1.00271574 25793
GSAT-17                 
1 42815U 17040B   24199.58637213 -.00000241  00000+0  00000+0 0  9998
2 42815   0.0486 264.6810 0001173   5.5870 330.2157  1.00271301 25771
INTELSAT 35E (IS-35E)   
1 42818U 17041A   24199.48934338 -.00000220  00000+0  00000+0 0  9996
2 42818   0.0127 341.2084 0001436 116.1508 340.0963  1.00272857 25793
COSMOS 2520             
1 42907U 17046A   24198.28865312  .00000155  00000+0  00000+0 0  9998
2 42907   0.0305 104.9795 0000515  32.5220 306.0030  1.00269997 25363
TDRS 13                 
1 42915U 17047A   24199.35079281 -.00000078  00000+0  00000+0 0  9994
2 42915   3.6169 345.2635 0017895 119.3959 305.8431  1.00272306 25331
QZS-3 (MICHIBIKI-3)     
1 42917U 17048A   24199.59303108 -.00000331  00000+0  00000+0 0  9993
2 42917   0.0599 203.8847 0002386 274.5576 157.9630  1.00268871 25242
AMAZONAS 5              
1 42934U 17053A   24193.00000000 -.00000277  00000+0  00000+0 0  9992
2 42934   0.0302 346.3905 0001234  81.8868 160.1329  1.00278438 25044
ASIASAT 9               
1 42942U 17057A   24199.59207382 -.00000343  00000+0  00000+0 0  9991
2 42942   0.0156  51.6154 0002228  62.7580 156.7566  1.00271057 24846
INTELSAT 37E (IS-37E)   
1 42950U 17059A   24199.40828264 -.00000123  00000+0  00000+0 0  9996
2 42950   0.0184  52.0448 0002849  65.6104 307.0433  1.00272123 25042
BSAT-4A                 
1 42951U 17059B   24197.80034465 -.00000332  00000+0  00000+0 0  9993
2 42951   0.0636  64.2818 0003666  14.5646 253.2475  1.00272858 24764
QZS-4 (MICHIBIKI-4)     
1 42965U 17062A   24176.78903547 -.00000324  00000+0  00000+0 0  9993
2 42965  40.5115 352.6916 0746082 271.6310  68.9097  1.00249876 24566
SES-11 (ECHOSTAR 105)   
1 42967U 17063A   24199.62558243 -.00000072  00000+0  00000+0 0  9993
2 42967   0.0098  31.7614 0002479  87.9937 296.4346  1.00271474 24707
KOREASAT 5A             
1 42984U 17067A   24199.59028816 -.00000341  00000+0  00000+0 0  9999
2 42984   0.0110   4.0890 0001293  82.7015 174.7528  1.00270679 24518
ALCOMSAT 1              
1 43039U 17078A   24199.41963448 -.00000168  00000+0  00000+0 0  9990
2 43039   0.0428 147.4568 0001470 346.8426 287.6866  1.00272921 24277
SBIRS GEO-3 (USA 282)   
1 43162U 18009A   24199.57199174  .00000149  00000+0  00000+0 0  9994
2 43162   2.3268 336.8613 0001864 139.6880 225.8463  1.00272352 23831
AL YAH 3                
1 43174U 18012A   24197.70338148 -.00000137  00000+0  00000+0 0  9998
2 43174   0.0791 266.6849 0002267 214.2582  46.2171  1.00271381 23818
SES-14                  
1 43175U 18012B   24197.69798608 -.00000260  00000+0  00000+0 0  9995
2 43175   0.0131 350.6020 0001206 116.2212  30.9805  1.00272392 24015
GOES 17                 
1 43226U 18022A   24199.62558293 -.00000073  00000+0  00000+0 0  9994
2 43226   0.0017 315.7087 0001330 192.2293 268.4849  1.00271988 23409
HISPASAT 30W-6          
1 43228U 18023A   24199.06096459 -.00000198  00000+0  00000+0 0  9994
2 43228   0.0415  48.8343 0005193  44.6811 193.8120  1.00270818 23391
SUPERBIRD-B3            
1 43271U 18033A   24199.56993924 -.00000075  00000+0  00000+0 0  9995
2 43271   0.0519 261.8713 0001564 199.7004 201.4666  1.00271695 23043
HYLAS 4                 
1 43272U 18033B   24199.48960444 -.00000216  00000+0  00000+0 0  9995
2 43272   0.0784 264.4872 0000948 224.8446 309.2273  1.00270315 23058
IRNSS-1I                
1 43286U 18035A   24197.77827198  .00000078  00000+0  00000+0 0  9995
2 43286  29.1740  85.1815 0018173 180.9205   3.1708  1.00274377 23040
USA 283                 
1 43339U 18036A   24178.48510830 -.00000313  00000+0  00000+0 0  9997
2 43339   0.0110 111.2886 0000138 102.4144  10.0948  1.00269846   177
COSMOS 2526             
1 43432U 18037A   24199.59320512 -.00000328  00000+0  00000+0 0  9999
2 43432   0.0311 105.9277 0000037 161.2757  10.3068  1.00270596 22959
APSTAR-6C               
1 43450U 18041A   24198.73578017 -.00000299  00000+0  00000+0 0  9991
2 43450   0.0369 318.6497 0001583 344.3841  30.9370  1.00271769 22793
BANGABANDHUSAT-1        
1 43463U 18044A   24199.52869256 -.00000345  00000+0  00000+0 0  9996
2 43463   0.0159 102.6911 0001849  25.1241 117.4450  1.00271178 22692
SES-12                  
1 43488U 18049A   24199.58663321 -.00000252  00000+0  00000+0 0  9996
2 43488   0.0111   7.3505 0000578 223.3641  11.3494  1.00270831 22405
FENGYUN 2H              
1 43491U 18050A   24199.58350039 -.00000108  00000+0  00000+0 0  9991
2 43491   1.2185  87.0609 0001924  47.4488  90.3089  1.00267057 22428
BEIDOU-2 IGSO-7         
1 43539U 18057A   24198.26773976 -.00000061  00000+0  00000+0 0  9992
2 43539  55.1516 169.1356 0079161 234.5898  95.5886  1.00303017 22104
